[{"OBJECT_NAME":"STARLINK-5481","OBJECT_ID":"2023-094AP","EPOCH":"2026-03-09T22:00:01.999584","MEAN_MOTION":15.05368952,"ECCENTRICITY":0.00017431,"INCLINATION":43.0015,"RA_OF_ASC_NODE":16.0381,"ARG_OF_PERICENTER":263.6038,"MEAN_ANOMALY":134.1698,"EPHEMERIS_TYPE":0,"CLASSIFICATION_TYPE":"U","NORAD_CAT_ID":57255,"ELEMENT_SET_NO":999,"REV_AT_EPOCH":573,"BSTAR":0.0021002529,"MEAN_MOTION_DOT":0.00030526,"MEAN_MOTION_DDOT":0},{"OBJECT_NAME":"OBJECT K","OBJECT_ID":"2017-042K","EPOCH":"2026-03-09T21:28:20.621568","MEAN_MOTION":15.07994228,"ECCENTRICITY":0.00097557,"INCLINATION":97.4104,"RA_OF_ASC_NODE":233.8721,"ARG_OF_PERICENTER":49.2775,"MEAN_ANOMALY":310.9299,"EPHEMERIS_TYPE":0,"CLASSIFICATION_TYPE":"U","NORAD_CAT_ID":42834,"ELEMENT_SET_NO":999,"REV_AT_EPOCH":47201,"BSTAR":0.00042776846,"MEAN_MOTION_DOT":6.528e-5,"MEAN_MOTION_DDOT":0}]
